[{"OBJECT_NAME":"STARLINK-1548","OBJECT_ID":"2020-055AD","EPOCH":"2026-03-09T12:00:01.999296","MEAN_MOTION":15.30165066,"ECCENTRICITY":0.0001263,"INCLINATION":53.1586,"RA_OF_ASC_NODE":114.7947,"ARG_OF_PERICENTER":87.1327,"MEAN_ANOMALY":321.8902,"EPHEMERIS_TYPE":0,"CLASSIFICATION_TYPE":"U","NORAD_CAT_ID":46054,"ELEMENT_SET_NO":999,"REV_AT_EPOCH":582,"BSTAR":0.0012285,"MEAN_MOTION_DOT":0.00036163,"MEAN_MOTION_DDOT":0},{"OBJECT_NAME":"ASRTU-1 (AO-123)","OBJECT_ID":"2024-199AY","EPOCH":"2026-03-09T13:13:07.733280","MEAN_MOTION":15.34061144,"ECCENTRICITY":0.0012816,"INCLINATION":97.3152,"RA_OF_ASC_NODE":298.1379,"ARG_OF_PERICENTER":310.8975,"MEAN_ANOMALY":49.1157,"EPHEMERIS_TYPE":0,"CLASSIFICATION_TYPE":"U","NORAD_CAT_ID":61781,"ELEMENT_SET_NO":999,"REV_AT_EPOCH":11864,"BSTAR":0.00030873,"MEAN_MOTION_DOT":0.00010125,"MEAN_MOTION_DDOT":0}]
